*******************************************************************************
 Revised: Jan 23, 2020            Hyperion / (Saturn)                       607
                        http://ssd.jpl.nasa.gov/?sat_phys_par
                          http://ssd.jpl.nasa.gov/?sat_elem

 SATELLITE PHYSICAL PROPERTIES:
  Mean Radius (km)        = 133    +- 8    Density (g/cm^3)  =  0.569 +- 0.108
  Mass (10^19 kg)         =   1.08 +- 0.52 Geometric Albedo  =  0.25
  GM (km^3/s^2)           = 0.3704 +- 0.02 V(1,0)            = +4.8 

 SATELLITE ORBITAL DATA (mean values with respect to local Laplace plane):
  Semi-major axis, a (km) = 1500.88(10^3)  Orbital period    = 21.276609 d
  Eccentricity, e         = 0.0274         Rotational period = Chaotic
  Inclination, i  (deg)   = 0.630
*******************************************************************************
 
 
*******************************************************************************
Ephemeris / WWW_USER Fri Jun 19 18:24:09 2020 Pasadena, USA      / Horizons
*******************************************************************************
Target body name: Hyperion (607)                  {source: sat427l_merged_DE438}
Center body name: Solar System Barycenter (0)     {source: DE431mx}
Center-site name: BODY CENTER
*******************************************************************************
Start time      : A.D. 1969-Jun-28 00:00:00.0000 TDB
Stop  time      : A.D. 2071-May-04 00:00:00.0000 TDB
Step-size       : 7200 minutes
*******************************************************************************
Center geodetic : 0.00000000,0.00000000,0.0000000 {E-lon(deg),Lat(deg),Alt(km)}
Center cylindric: 0.00000000,0.00000000,0.0000000 {E-lon(deg),Dxy(km),Dz(km)}
Center radii    : (undefined)                                                  
Output units    : AU-D
Output type     : GEOMETRIC cartesian states
Output format   : 2 (position and velocity)
Reference frame : Ecliptic of J2000.0
*******************************************************************************
            JDTDB,            Calendar Date (TDB),        delta-T,                      X,                      Y,                      Z,                     VX,                     VY,                     VZ,
******************************************************************************************************************************************************************************************************************
$$SOE
2465600.500000000, A.D. 2038-Jun-26 00:00:00.0000,      69.184256, -9.097324785563858E+00,  2.202341788979996E+00,  3.281217247780057E-01,  1.295812008695476E-03, -5.057682082954143E-03, -2.931966971947545E-04,
2465605.500000000, A.D. 2038-Jul-01 00:00:00.0000,      69.184120, -9.097591978929435E+00,  2.185575743450002E+00,  3.229387917504836E-01, -2.390271576512499E-03, -2.538718237907723E-03, -1.240223565569472E-03,
2465610.500000000, A.D. 2038-Jul-06 00:00:00.0000,      69.183984, -9.117531384652271E+00,  2.165249644975260E+00,  3.213206506093278E-01, -4.344691674942661E-03, -5.944426012704422E-03,  6.603719979371601E-04,
2465615.500000000, A.D. 2038-Jul-11 00:00:00.0000,      69.183846, -9.132949002063819E+00,  2.129604601902217E+00,  3.270559684497087E-01, -1.517597398535705E-03, -7.737505013008035E-03,  1.314402377491362E-03,
2465620.500000000, A.D. 2038-Jul-16 00:00:00.0000,      69.183708, -9.132875935265972E+00,  2.093685019429278E+00,  3.315347213256564E-01,  1.213286397670316E-03, -6.051473030448079E-03,  2.136377519336947E-04,
2465625.500000000, A.D. 2038-Jul-21 00:00:00.0000,      69.183572, -9.128956821393610E+00,  2.072821468738003E+00,  3.280316473202308E-01, -8.631910616022110E-04, -2.584507557715879E-03, -1.358303207068855E-03,
2465630.500000000, A.D. 2038-Jul-26 00:00:00.0000,      69.183441, -9.144880035106571E+00,  2.056293373666957E+00,  3.241070407857519E-01, -4.476012321762318E-03, -4.977305571626805E-03,  1.778318595222664E-04,
2465635.500000000, A.D. 2038-Jul-31 00:00:00.0000,      69.183314, -9.163220922472485E+00,  2.023448485073335E+00,  3.286651719650431E-01, -2.317916304560144E-03, -7.624278049372984E-03,  1.324866862746808E-03,
2465640.500000000, A.D. 2038-Aug-05 00:00:00.0000,      69.183193, -9.166601974771879E+00,  1.985850040562596E+00,  3.342853418843085E-01,  8.059407451364304E-04, -6.832318393428315E-03,  6.421238907922550E-04,
2465645.500000000, A.D. 2038-Aug-10 00:00:00.0000,      69.183077, -9.160777972885029E+00,  1.960264213060035E+00,  3.329857154172975E-01,  4.461204838030064E-04, -3.224108944697862E-03, -1.155433769993804E-03,
2465650.500000000, A.D. 2038-Aug-15 00:00:00.0000,      69.182965, -9.170924529399381E+00,  1.945717841590334E+00,  3.275193002101398E-01, -4.133624601233925E-03, -3.930995610141737E-03, -3.869578590505158E-04,
2465655.500000000, A.D. 2038-Aug-20 00:00:00.0000,      69.182861, -9.191058838152346E+00,  1.916751943779088E+00,  3.302539957559588E-01, -3.081998958079359E-03, -7.263995320931197E-03,  1.207238063025361E-03,
2465660.500000000, A.D. 2038-Aug-25 00:00:00.0000,      69.182766, -9.198314442234912E+00,  1.878654538619946E+00,  3.364574403452169E-01,  1.785645766895709E-04, -7.393885875961594E-03,  9.798061123821094E-04,
2465665.500000000, A.D. 2038-Aug-30 00:00:00.0000,      69.182682, -9.192623129114194E+00,  1.848529235976025E+00,  3.374543539317724E-01,  1.290887501407218E-03, -4.203180347647831E-03, -7.383950857241181E-04,
2465670.500000000, A.D. 2038-Sep-04 00:00:00.0000,      69.182607, -9.196423034181676E+00,  1.833627568811959E+00,  3.315803205062743E-01, -3.249453612191576E-03, -3.044765158641642E-03, -9.192108167053076E-04,
2465675.500000000, A.D. 2038-Sep-09 00:00:00.0000,      69.182541, -9.216575077411390E+00,  1.809186536337376E+00,  3.320058242827643E-01, -3.707502291643953E-03, -6.651003467085598E-03,  9.495067451339076E-04,
2465680.500000000, A.D. 2038-Sep-14 00:00:00.0000,      69.182484, -9.227771733198917E+00,  1.771852681684975E+00,  3.381609868496588E-01, -6.125413048644492E-04, -7.714840564579669E-03,  1.210506825692620E-03,
2465685.500000000, A.D. 2038-Sep-19 00:00:00.0000,      69.182438, -9.224055910610893E+00,  1.737808426202575E+00,  3.413069472883271E-01,  1.593991928568959E-03, -5.338488295149111E-03, -1.929702889273730E-04,
2465690.500000000, A.D. 2038-Sep-24 00:00:00.0000,      69.182405, -9.221928122253134E+00,  1.720061085338820E+00,  3.363291672218099E-01, -1.825991204089372E-03, -2.546312600946478E-03, -1.302542533071189E-03,
2465695.500000000, A.D. 2038-Sep-29 00:00:00.0000,      69.182385, -9.239871676565480E+00,  1.700326288060958E+00,  3.341560849873681E-01, -4.122588575809890E-03, -5.802673887746026E-03,  5.538143451548234E-04,
2465700.500000000, A.D. 2038-Oct-04 00:00:00.0000,      69.182377, -9.254661393131975E+00,  1.664983148002877E+00,  3.396105166454312E-01, -1.445565809157980E-03, -7.777321102257426E-03,  1.314232915732080E-03,
2465705.500000000, A.D. 2038-Oct-09 00:00:00.0000,      69.182379, -9.254055850231373E+00,  1.628279646325667E+00,  3.443706323947702E-01,  1.410095414086007E-03, -6.320578971491748E-03,  3.188787268196902E-04,
2465710.500000000, A.D. 2038-Oct-14 00:00:00.0000,      69.182393, -9.248103557417229E+00,  1.606041888043750E+00,  3.413137422040612E-01, -2.500513632460058E-04, -2.737478034137395E-03, -1.349500220203373E-03,
2465715.500000000, A.D. 2038-Oct-19 00:00:00.0000,      69.182418, -9.261390414218992E+00,  1.589936876474944E+00,  3.368702669381125E-01, -4.155009747430894E-03, -4.760329751503325E-03,  2.583141995450247E-05,
2465720.500000000, A.D. 2038-Oct-24 00:00:00.0000,      69.182457, -9.278995482470387E+00,  1.557851442478666E+00,  3.409137696007115E-01, -2.284634823517605E-03, -7.580258313243550E-03,  1.287288066175792E-03,
2465725.500000000, A.D. 2038-Oct-29 00:00:00.0000,      69.182509, -9.282203373522995E+00,  1.519747794132858E+00,  3.467151964984938E-01,  9.053443803143002E-04, -7.082229102266593E-03,  7.483414991522615E-04,
2465730.500000000, A.D. 2038-Nov-03 00:00:00.0000,      69.182571, -9.274826776203520E+00,  1.492545761798019E+00,  3.460371212514838E-01,  1.014360548301192E-03, -3.509755033000248E-03, -1.073609966720026E-03,
2465735.500000000, A.D. 2038-Nov-08 00:00:00.0000,      69.182643, -9.281878109541353E+00,  1.477913653518916E+00,  3.402758571354953E-01, -3.655778419128686E-03, -3.710512844161146E-03, -5.534911030840451E-04,
2465740.500000000, A.D. 2038-Nov-13 00:00:00.0000,      69.182725, -9.300827731868623E+00,  1.450072183506001E+00,  3.422781277807774E-01, -3.034053628594868E-03, -7.118116135131825E-03,  1.118420556593356E-03,
2465745.500000000, A.D. 2038-Nov-18 00:00:00.0000,      69.182816, -9.308161474165781E+00,  1.411899564963850E+00,  3.484759233752354E-01,  1.647739485301507E-04, -7.586784607305642E-03,  1.068848693114888E-03,
2465750.500000000, A.D. 2038-Nov-23 00:00:00.0000,      69.182918, -9.301663701486255E+00,  1.380013015559013E+00,  3.502436149862250E-01,  1.736620329713130E-03, -4.645740373414697E-03, -5.639767586137120E-04,
2465755.500000000, A.D. 2038-Nov-28 00:00:00.0000,      69.183030, -9.301951445460586E+00,  1.364194705976964E+00,  3.444691218245672E-01, -2.553202935908139E-03, -2.855170636221786E-03, -1.087757266292650E-03,
2465760.500000000, A.D. 2038-Dec-03 00:00:00.0000,      69.183148, -9.320290704612672E+00,  1.341209390239414E+00,  3.439460537121968E-01, -3.618639658507474E-03, -6.410696541717628E-03,  8.105649867253743E-04,
2465765.500000000, A.D. 2038-Dec-08 00:00:00.0000,      69.183272, -9.331557811199382E+00,  1.304275353386036E+00,  3.498611644353412E-01, -6.633583801274759E-04, -7.807516636088560E-03,  1.253658620705515E-03,
2465770.500000000, A.D. 2038-Dec-13 00:00:00.0000,      69.183401, -9.327585716022714E+00,  1.268876973077847E+00,  3.536296030239313E-01,  1.842513037209831E-03, -5.766195707187991E-03, -6.548776956998550E-06,
